OBJECT_NAME,OBJECT_ID,EPOCH,MEAN_MOTION,ECCENTRICITY,INCLINATION,RA_OF_ASC_NODE,ARG_OF_PERICENTER,MEAN_ANOMALY,EPHEMERIS_TYPE,CLASSIFICATION_TYPE,NORAD_CAT_ID,ELEMENT_SET_NO,REV_AT_EPOCH,BSTAR,MEAN_MOTION_DOT,MEAN_MOTION_DDOT
PERSEUS-M1,2014-033AF,2026-05-16T14:10:42.041568,14.95518502,.00127841,97.9633,80.2103,48.1314,312.0995,0,U,40039,999,64591,.14091742E-3,.1503E-4,0
POLYITAN-1,2014-033AJ,2026-05-16T12:26:20.838336,15.32099311,.0005524,98.0957,159.8108,250.0236,110.0409,0,U,40042,999,64874,.51254E-3,.15819E-3,0
TIGRISAT,2014-033AK,2026-05-15T20:12:25.174656,14.85014795,.00495273,97.7794,286.6058,179.1372,180.9937,0,U,40043,999,64082,.15680564E-3,.1312E-4,0
AEROCUBE 6A,2014-033AM,2026-05-16T10:14:29.446080,14.97738171,.00402412,97.7219,303.7278,120.6072,239.9129,0,U,40045,999,64186,.41488709E-3,.4887E-4,0
AEROCUBE 6B,2014-033AN,2026-05-16T09:25:51.116736,14.99156904,.00382647,97.7169,303.4195,114.1674,246.3557,0,U,40046,999,64199,.41060709E-3,.5012E-4,0
CANX-4,2014-034C,2026-05-16T14:31:20.298720,14.81201879,.00140304,98.3163,10.7536,110.4900,249.7819,0,U,40055,999,63985,.82402436E-4,.585E-5,0
CANX-5,2014-034D,2026-05-16T14:29:36.431232,14.81218895,.00140385,98.3165,10.7940,110.6739,249.5979,0,U,40056,999,63066,.82246906E-4,.584E-5,0
UKUBE-1,2014-037F,2026-05-16T10:18:07.771104,15.13006943,.0000313,98.4239,136.3799,107.4584,252.6679,0,U,40074,999,64375,.35243E-3,.6146E-4,0
BRITE-PL2 (HEWELIUSZ),2014-049B,2026-05-16T13:42:10.645056,14.94464320,.0013437,97.9062,248.3365,209.5924,150.4537,0,U,40119,999,63672,.10514E-3,.1076E-4,0
AEROCUBE 5C,2015-058B,2026-05-16T14:05:13.668864,14.91263457,.01298733,64.7685,0.8839,75.6931,285.8561,0,U,40965,999,36094,.20539461E-3,.2229E-4,0
AEROCUBE 7,2015-058C,2026-05-16T14:32:38.412960,14.95467313,.01196532,64.7628,343.7167,74.3672,287.0608,0,U,40966,999,36123,.27028138E-3,.3281E-4,0
FOX-1A (AO-85),2015-058D,2026-05-16T14:58:52.917312,14.90772166,.01291105,64.7769,17.0576,68.9698,292.5167,0,U,40967,999,10886,.21636768E-3,.2322E-4,0
SINOD-D 1,2015-058E,2026-05-16T14:06:18.848160,14.95645120,.01176174,64.7762,357.8510,65.7654,295.5697,0,U,40968,999,11193,.26527413E-3,.3216E-4,0
SNAP-3 ALICE,2015-058G,2026-05-16T13:31:52.794336,15.53774028,.00331362,64.7529,212.6620,28.3642,331.9296,0,U,40970,999,11196,.99508695E-3,.66061E-3,0
LMRST-SAT,2015-058H,2026-05-16T15:19:40.215360,14.90397863,.01308968,64.7774,13.2916,70.9923,290.5317,0,U,40971,999,10885,.21726804E-3,.2319E-4,0
SNAP-3 EDDIE,2015-058J,2026-05-16T13:52:18.817248,15.54937011,.00335026,64.7446,203.5651,32.1008,328.2166,0,U,40972,999,11410,.10061922E-2,.69803E-3,0
PROPCUBE 3,2015-058K,2026-05-16T14:49:07.158144,14.94030180,.01230357,64.7692,351.1555,72.4933,288.9582,0,U,40973,999,11008,.23953119E-3,.2794E-4,0
BISONSAT,2015-058L,2026-05-16T08:46:28.698816,15.15515819,.00787214,64.7598,276.4654,60.8245,300.0725,0,U,40974,999,11079,.48796288E-3,.9848E-4,0
SNAP-3 JIMI,2015-058M,2026-05-16T11:58:27.304032,15.01957836,.0105053,64.7652,320.0062,68.5179,292.7101,0,U,40975,999,10946,.3288E-3,.4677E-4,0
PROPCUBE 1 (FLORA),2015-058N,2026-05-16T10:19:33.211200,14.89029612,.0129683,64.7749,33.6447,73.3716,288.1587,0,U,40976,999,11153,.1921E-3,.1946E-4,0
SINOD-D 3,2015-058P,2026-05-16T15:26:56.944896,14.93759866,.0118163,64.7738,14.3013,70.7372,290.6479,0,U,40977,999,11004,.26574543E-3,.3061E-4,0
HORYU-4,2016-012D,2026-05-16T14:20:51.381888,15.78983981,.00049934,30.9887,307.6949,56.5681,303.5454,0,U,41340,999,56579,.86366253E-3,.16325E-2,0
RAVAN,2016-067B,2026-05-16T09:48:05.439456,15.51621694,.00071983,97.9939,22.3870,111.2023,248.9997,0,U,41849,999,52276,.78719809E-3,.46874E-3,0
CELTEE 1,2016-067C,2026-05-16T14:21:19.823040,15.19349073,.0001598,98.0712,1.0129,56.1474,303.9911,0,U,41850,999,52108,.18301908E-3,.379E-4,0
OPTICUBE 04,2016-067D,2026-05-16T12:39:49.111200,15.09515933,.001467,98.0730,347.1576,220.8677,139.1451,0,U,41851,999,52039,.10534E-3,.1621E-4,0
AEROCUBE 8D,2016-067E,2026-05-16T13:51:08.087616,15.23925564,.00021556,98.0722,4.3497,225.4719,134.6340,0,U,41852,999,52125,.25290012E-3,.6031E-4,0
AEROCUBE 8C,2016-067F,2026-05-16T14:34:22.822176,15.24164482,.00058246,98.0594,1.6507,155.4910,204.6603,0,U,41853,999,52125,.24680811E-3,.5928E-4,0
CORVUS BC2,2017-042X,2026-05-16T13:43:23.173536,15.06080005,.00121786,97.4038,299.1621,214.2043,145.8401,0,U,42846,999,48230,.13074193E-3,.1853E-4,0
CORVUS BC1,2017-042Y,2026-05-16T13:40:47.799552,15.06250939,.00116331,97.4069,299.9537,188.9736,171.1286,0,U,42847,999,48233,.12317561E-3,.175E-4,0
MAKERSAT 0,2017-073D,2026-05-16T14:53:38.415264,15.30697756,.01111032,97.4674,18.9198,26.3633,334.3202,0,U,43016,999,46163,.62456576E-3,.22402E-3,0
