PERSEUS-M1              
1 40039U 14033AF  26136.59076437  .00001503  00000+0  14092-3 0  9993
2 40039  97.9633  80.2103 0012784  48.1314 312.0995 14.95518502645916
POLYITAN-1              
1 40042U 14033AJ  26136.51829674  .00015819  00000+0  51254-3 0  9994
2 40042  98.0957 159.8108 0005524 250.0236 110.0409 15.32099311648744
TIGRISAT                
1 40043U 14033AK  26135.84195804  .00001312  00000+0  15681-3 0  9998
2 40043  97.7794 286.6058 0049527 179.1372 180.9937 14.85014795640829
AEROCUBE 6A             
1 40045U 14033AM  26136.42672970  .00004887  00000+0  41489-3 0  9994
2 40045  97.7219 303.7278 0040241 120.6072 239.9129 14.97738171641867
AEROCUBE 6B             
1 40046U 14033AN  26136.39295274  .00005012  00000+0  41061-3 0  9996
2 40046  97.7169 303.4195 0038264 114.1674 246.3557 14.99156904641996
CANX-4                  
1 40055U 14034C   26136.60509605  .00000585  00000+0  82402-4 0  9992
2 40055  98.3163  10.7536 0014030 110.4900 249.7819 14.81201879639853
CANX-5                  
1 40056U 14034D   26136.60389388  .00000584  00000+0  82247-4 0  9993
2 40056  98.3165  10.7940 0014038 110.6739 249.5979 14.81218895630666
UKUBE-1                 
1 40074U 14037F   26136.42925661  .00006146  00000+0  35243-3 0  9999
2 40074  98.4239 136.3799 0000313 107.4584 252.6679 15.13006943643750
BRITE-PL2 (HEWELIUSZ)   
1 40119U 14049B   26136.57095654  .00001076  00000+0  10514-3 0  9999
2 40119  97.9062 248.3365 0013437 209.5924 150.4537 14.94464320636726
AEROCUBE 5C             
1 40965U 15058B   26136.58696376  .00002229  00000+0  20539-3 0  9997
2 40965  64.7685   0.8839 0129873  75.6931 285.8561 14.91263457360940
AEROCUBE 7              
1 40966U 15058C   26136.60600015  .00003281  00000+0  27028-3 0  9995
2 40966  64.7628 343.7167 0119653  74.3672 287.0608 14.95467313361234
FOX-1A (AO-85)          
1 40967U 15058D   26136.62422358  .00002322  00000+0  21637-3 0  9995
2 40967  64.7769  17.0576 0129110  68.9698 292.5167 14.90772166108861
SINOD-D 1               
1 40968U 15058E   26136.58771815  .00003216  00000+0  26527-3 0  9992
2 40968  64.7762 357.8510 0117617  65.7654 295.5697 14.95645120111931
SNAP-3 ALICE            
1 40970U 15058G   26136.56380549  .00066061  00000+0  99509-3 0  9990
2 40970  64.7529 212.6620 0033136  28.3642 331.9296 15.53774028111968
LMRST-SAT               
1 40971U 15058H   26136.63865990  .00002319  00000+0  21727-3 0  9990
2 40971  64.7774  13.2916 0130896  70.9923 290.5317 14.90397863108856
SNAP-3 EDDIE            
1 40972U 15058J   26136.57799557  .00069803  00000+0  10062-2 0  9999
2 40972  64.7446 203.5651 0033502  32.1008 328.2166 15.54937011114105
PROPCUBE 3              
1 40973U 15058K   26136.61744396  .00002794  00000+0  23953-3 0  9996
2 40973  64.7692 351.1555 0123035  72.4933 288.9582 14.94030180110088
BISONSAT                
1 40974U 15058L   26136.36560994  .00009848  00000+0  48796-3 0  9998
2 40974  64.7598 276.4654 0078721  60.8245 300.0725 15.15515819110795
SNAP-3 JIMI             
1 40975U 15058M   26136.49892713  .00004677  00000+0  32880-3 0  9992
2 40975  64.7652 320.0062 0105053  68.5179 292.7101 15.01957836109467
PROPCUBE 1 (FLORA)      
1 40976U 15058N   26136.43024550  .00001946  00000+0  19210-3 0  9991
2 40976  64.7749  33.6447 0129683  73.3716 288.1587 14.89029612111530
SINOD-D 3               
1 40977U 15058P   26136.64371464  .00003061  00000+0  26575-3 0  9996
2 40977  64.7738  14.3013 0118163  70.7372 290.6479 14.93759866110043
HORYU-4                 
1 41340U 16012D   26136.59781692  .00163250  00000+0  86366-3 0  9995
2 41340  30.9887 307.6949 0004993  56.5681 303.5454 15.78983981565798
RAVAN                   
1 41849U 16067B   26136.40839629  .00046874  00000+0  78720-3 0  9990
2 41849  97.9939  22.3870 0007198 111.2023 248.9997 15.51621694522761
CELTEE 1                
1 41850U 16067C   26136.59814610  .00003790  00000+0  18302-3 0  9995
2 41850  98.0712   1.0129 0001598  56.1474 303.9911 15.19349073521084
OPTICUBE 04             
1 41851U 16067D   26136.52765175  .00001621  00000+0  10534-3 0  9990
2 41851  98.0730 347.1576 0014670 220.8677 139.1451 15.09515933520395
AEROCUBE 8D             
1 41852U 16067E   26136.57717694  .00006031  00000+0  25290-3 0  9994
2 41852  98.0722   4.3497 0002155 225.4719 134.6340 15.23925564521258
AEROCUBE 8C             
1 41853U 16067F   26136.60720859  .00005928  00000+0  24681-3 0  9993
2 41853  98.0594   1.6507 0005824 155.4910 204.6603 15.24164482521254
CORVUS BC2              
1 42846U 17042X   26136.57179599  .00001853  00000+0  13074-3 0  9992
2 42846  97.4038 299.1621 0012178 214.2043 145.8401 15.06080005482307
CORVUS BC1              
1 42847U 17042Y   26136.56999768  .00001750  00000+0  12318-3 0  9996
2 42847  97.4069 299.9537 0011633 188.9736 171.1286 15.06250939482338
MAKERSAT 0              
1 43016U 17073D   26136.62058351  .00022402  00000+0  62457-3 0  9996
2 43016  97.4674  18.9198 0111103  26.3633 334.3202 15.30697756461635
